[
	{
		"name": "AGE-GGK",
		"fullname": "AGE GGK",
		"website": "www.age-rotterdam.nl",
		"address": {
			"street": "Van der Duijn van Maasdamweg 601",
			"postalCode": "3045 PE",
			"city": "Rotterdam"      
		},
		"position": [ 51.946115, 4.4394062 ]
	},
	{
		"name": "Blijdorp",
		"fullname": "R.V.V. Blijdorp",
		"website": "rvv-blijdorp.nl",
		"address": {
			"street": "Energieweg 15",
			"postalCode": "3041 JC",
			"city": "Rotterdam"
		},
		"position": [ 51.9264862, 4.4397681 ]
	},
  {
		"name": "Capelle",
		"fullname": "v.v. Capelle",
		"website": "www.vvcapelle.nl",
		"address": {
			"street": "P C Boutenssingel 1",
			"postalCode": "2902 BG",
			"city": "Capelle aan den IJssel"      
		},
		"position": [ 51.9225331, 4.5747571 ]
	},
	{
		"name": "CWO",
		"fullname": "sv CWO",
		"website": "svcwo.nl",
		"address": {
			"street": "Kethelweg 220",
			"postalCode": "3135 GP",
			"city": "Vlaardingen"
		},
		"position": [ 51.9210767, 4.3624627 ]
	},
  {
		"name": "DHC",
		"fullname": "DHC",
		"website": "www.dhc-delft.nl",
		"address": {
			"street": "Sportring 2",
			"postalCode": "2616 LK",
			"city": "Delft"
		},
		"position": [ 52.0095802, 4.3450119 ]
	},
  {
		"name": "DHL",
		"fullname": "sv DHL",
		"website": "www.svdhl.nl",
		"address": {
			"street": "Brasserskade 234",
			"postalCode": "2616 LA",
			"city": "Delft"
		},
		"position": [ 52.0298254, 4.3676395 ]
	},
	{
		"name": "Excelsior'20",
		"fullname": "RKSV Excelsior'20",
		"website": "excelsior20.nl",
		"address": {
			"street": "Parkweg 419",
			"postalCode": "3121 KK",
			"city": "Schiedam"
		},
		"position": [ 51.9299468, 4.3914764 ]
	},
	{
		"name": "GLZ Delfshaven",
		"fullname": "GLZ Delfshaven",
		"website": "glzdelfshaven.nl",
		"address": {
			"street": "Spaanseweg 1",
			"postalCode": "3028 HW",
			"city": "Rotterdam"
		},
		"position": [ 51.9200779, 4.4259776 ]
	},
	{
		"name": "Hermes DVS",
		"fullname": "C. en F.C. Hermes-D.V.S.",
		"website": "hermesdvs.nl",
		"address": {
			"street": "Olympiaweg 10",
			"postalCode": "3118 JD",
			"city": "Schiedam"
		},
		"position": [ 51.9214353, 4.3713605 ]
	},
	{
		"name": "HWD",
		"fullname": "vv HWD",
		"website": "vvhwd.nl",
		"address": {
			"street": "Taludweg 5",
			"postalCode": "3042 JZ",
			"city": "Rotterdam"
		},
		"position": [ 51.927439, 4.4299743 ]
	},
	{
		"name": "Kethel Spaland",
		"fullname": "vv Kethel Spaland",
		"website": "kethelspaland.nl",
		"address": {
			"street": "Zoomweg 2",
			"postalCode": "3123 EP",
			"city": "Schiedam"
		},
		"position": [ 51.940223, 4.362037 ]
	},
  {
		"name": "Leonidas",
		"fullname": "R.K.S.V. Leonidas",
		"website": "www.rksvleonidas.com",
		"address": {
			"street": "Erasmuspad 9",
			"postalCode": "3052 KP",
			"city": "Rotterdam"
		},
		"position": [ 51.947885, 4.4654503 ]
	},
  {
		"name": "Neptunus-Schiebroek",
		"fullname": "rvv Neptunus-Schiebroek",
		"website": "neptunus-schiebroek.nl",
		"address": {
			"street": "Hazelaarweg 40",
			"postalCode": "3053 PM",
			"city": "Rotterdam"
		},
		"position": [ 51.9659489, 4.4778496 ]
	},
	{
		"name": "Nieuwerkerk",
		"fullname": "vv Nieuwerkerk",
		"website": "vvnieuwerkerk.nl",
		"address": {
			"street": "Sportpark Dorrestein 2",
			"postalCode": "2912 TL",
			"city": "Nieuwerkerk"
		},
		"position": [ 51.9606586, 4.6009416 ]
	},
  {
		"name": "Oliveo",
		"fullname": "Oliveo",
		"website": "oliveo.nl",
		"address": {
			"street": "Sportlaan 2",
			"postalCode": "2641 AZ",
			"city": "Pijnacker"
		},
		"position": [ 52.0254817, 4.4169652 ]
	},
  {
    "name": "Spartaan'20",
    "fullname": "RKSV Spartaan'20",
    "website": "spartaan20.nl",
    "address": {
      "street": "Oldegaarde 251",
      "postalCode": "3084 AA",
      "city": "Rotterdam"
    },
    "position": [ 51.8782325, 4.4894363 ]
  },
  {
		"name": "XerxesDZB",
		"fullname": "XerxesDZB",
		"website": "www.xerxesdzb.nl",
		"address": {
			"street": "Igor Stravinskysingel 1",
			"postalCode": "3069 MA",
			"city": "Rotterdam"
		},
		"position": [ 51.9688309, 4.5557931 ]
	},
	{
		"name": "Zestienhoven",
		"fullname": "RCSV Zestienhoven",
		"website": "rcsvzestienhoven.nl",
		"address": {
			"street": "Van der Duijn van Maasdamweg 601",
			"postalCode": "3045 PE",
			"city": "Rotterdam"      
		},
		"position": [ 51.946115, 4.4383457 ]
	}
]
